[Satellite]
VERSION=1.1
NAME=MO-122
NICKNAME=MO-122
TLE1=1 60209U 24125G   25178.09441346  .00015413  00000-0  42999-3 0  9995
TLE2=2 60209  97.2769  29.5208 0020132  76.8441 283.5048 15.36628656 54640
STATUS=0
